{
  "type": "FeatureCollection",
  "features": [
    {
      "type": "Feature",
      "properties": {
        "norad_id": 31424,
        "name": "FENGYUN 1C DEB",
        "group": "fengyun-1c-debris",
        "lat": -23.820663570719706,
        "lon": 30.00031311805474,
        "alt_km": 924.7053960103458,
        "timestamp": "2025-12-07T22:37:43.362247+00:00",
        "meta_object_name": "FENGYUN 1C DEB",
        "meta_object_id": "1999-025BTL",
        "meta_epoch": "2025-12-06T14:20:51.689472",
        "meta_mean_motion": 14.08352403,
        "meta_eccentricity": 0.00944321,
        "meta_inclination": 98.4822,
        "meta_ra_of_asc_node": 24.9579,
        "meta_arg_of_pericenter": 122.6448,
        "meta_mean_anomaly": 238.3878,
        "meta_ephemeris_type": 0,
        "meta_classification_type": "U",
        "meta_norad_cat_id": 31424,
        "meta_element_set_no": 999,
        "meta_rev_at_epoch": 63084,
        "meta_bstar": 0.00030072838,
        "meta_mean_motion_dot": 4.97e-06,
        "meta_mean_motion_ddot": 0,
        "tle_line1": "1 31424U 99025BTL 25340.59782048  .00000497  00000+0  30073-3 0  9991",
        "tle_line2": "2 31424  98.4822  24.9579 0094432 122.6448 238.3878 14.08352403630844"
      },
      "geometry": {
        "type": "Point",
        "coordinates": [
          30.00031311805474,
          -23.820663570719706
        ]
      }
    },
    {
      "type": "Feature",
      "properties": {
        "norad_id": 31426,
        "name": "FENGYUN 1C DEB",
        "group": "fengyun-1c-debris",
        "lat": 64.07120903539578,
        "lon": -21.99326124331922,
        "alt_km": 892.8357135567221,
        "timestamp": "2025-12-07T22:37:43.362257+00:00",
        "meta_object_name": "FENGYUN 1C DEB",
        "meta_object_id": "1999-025BTN",
        "meta_epoch": "2025-12-07T05:37:47.692992",
        "meta_mean_motion": 13.8997631,
        "meta_eccentricity": 0.03250534,
        "meta_inclination": 98.5793,
        "meta_ra_of_asc_node": 139.2632,
        "meta_arg_of_pericenter": 201.1727,
        "meta_mean_anomaly": 334.7898,
        "meta_ephemeris_type": 0,
        "meta_classification_type": "U",
        "meta_norad_cat_id": 31426,
        "meta_element_set_no": 999,
        "meta_rev_at_epoch": 93496,
        "meta_bstar": 0.0047916332,
        "meta_mean_motion_dot": 9.013e-05,
        "meta_mean_motion_ddot": 0,
        "tle_line1": "1 31426U 99025BTN 25341.23457978  .00009013  00000+0  47916-2 0  9992",
        "tle_line2": "2 31426  98.5793 139.2632 0325053 201.1727 334.7898 13.89976310934963"
      },
      "geometry": {
        "type": "Point",
        "coordinates": [
          -21.99326124331922,
          64.07120903539578
        ]
      }
    },
    {
      "type": "Feature",
      "properties": {
        "norad_id": 31427,
        "name": "FENGYUN 1C DEB",
        "group": "fengyun-1c-debris",
        "lat": -48.716505266194815,
        "lon": 100.80215079548425,
        "alt_km": 702.6674126077169,
        "timestamp": "2025-12-07T22:37:43.362268+00:00",
        "meta_object_name": "FENGYUN 1C DEB",
        "meta_object_id": "1999-025BTP",
        "meta_epoch": "2025-12-07T06:23:22.733376",
        "meta_mean_motion": 14.58489801,
        "meta_eccentricity": 0.00316364,
        "meta_inclination": 98.6705,
        "meta_ra_of_asc_node": 90.088,
        "meta_arg_of_pericenter": 37.3606,
        "meta_mean_anomaly": 322.9784,
        "meta_ephemeris_type": 0,
        "meta_classification_type": "U",
        "meta_norad_cat_id": 31427,
        "meta_element_set_no": 999,
        "meta_rev_at_epoch": 96801,
        "meta_bstar": 0.00373548,
        "meta_mean_motion_dot": 0.00017455,
        "meta_mean_motion_ddot": 0,
        "tle_line1": "1 31427U 99025BTP 25341.26623534  .00017455  00000+0  37355-2 0  9994",
        "tle_line2": "2 31427  98.6705  90.0880 0031636  37.3606 322.9784 14.58489801968010"
      },
      "geometry": {
        "type": "Point",
        "coordinates": [
          100.80215079548425,
          -48.716505266194815
        ]
      }
    },
    {
      "type": "Feature",
      "properties": {
        "norad_id": 31428,
        "name": "FENGYUN 1C DEB",
        "group": "fengyun-1c-debris",
        "lat": -25.267691847940647,
        "lon": -42.57946056017177,
        "alt_km": 801.5047831275269,
        "timestamp": "2025-12-07T22:37:43.362278+00:00",
        "meta_object_name": "FENGYUN 1C DEB",
        "meta_object_id": "1999-025BTQ",
        "meta_epoch": "2025-12-05T16:37:31.736352",
        "meta_mean_motion": 14.41959696,
        "meta_eccentricity": 0.00634533,
        "meta_inclination": 99.0375,
        "meta_ra_of_asc_node": 310.7314,
        "meta_arg_of_pericenter": 174.6333,
        "meta_mean_anomaly": 5.6896,
        "meta_ephemeris_type": 0,
        "meta_classification_type": "U",
        "meta_norad_cat_id": 31428,
        "meta_element_set_no": 999,
        "meta_rev_at_epoch": 97408,
        "meta_bstar": 0.0014692419,
        "meta_mean_motion_dot": 4.886e-05,
        "meta_mean_motion_ddot": 0,
        "tle_line1": "1 31428U 99025BTQ 25339.69272843  .00004886  00000+0  14692-2 0  9995",
        "tle_line2": "2 31428  99.0375 310.7314 0063453 174.6333   5.6896 14.41959696974086"
      },
      "geometry": {
        "type": "Point",
        "coordinates": [
          -42.57946056017177,
          -25.267691847940647
        ]
      }
    },
    {
      "type": "Feature",
      "properties": {
        "norad_id": 31429,
        "name": "FENGYUN 1C DEB",
        "group": "fengyun-1c-debris",
        "lat": -0.6130558719344137,
        "lon": 31.039716536830426,
        "alt_km": 817.4636435693374,
        "timestamp": "2025-12-07T22:37:43.362289+00:00",
        "meta_object_name": "FENGYUN 1C DEB",
        "meta_object_id": "1999-025BTR",
        "meta_epoch": "2025-12-07T02:30:40.068288",
        "meta_mean_motion": 14.22532959,
        "meta_eccentricity": 0.00146777,
        "meta_inclination": 98.6902,
        "meta_ra_of_asc_node": 30.1195,
        "meta_arg_of_pericenter": 79.3518,
        "meta_mean_anomaly": 310.0385,
        "meta_ephemeris_type": 0,
        "meta_classification_type": "U",
        "meta_norad_cat_id": 31429,
        "meta_element_set_no": 999,
        "meta_rev_at_epoch": 95873,
        "meta_bstar": 0.001603618,
        "meta_mean_motion_dot": 3.541e-05,
        "meta_mean_motion_ddot": 0,
        "tle_line1": "1 31429U 99025BTR 25341.10463042  .00003541  00000+0  16036-2 0  9999",
        "tle_line2": "2 31429  98.6902  30.1195 0014677  79.3518 310.0385 14.22532959958736"
      },
      "geometry": {
        "type": "Point",
        "coordinates": [
          31.039716536830426,
          -0.6130558719344137
        ]
      }
    },
    {
      "type": "Feature",
      "properties": {
        "norad_id": 31430,
        "name": "FENGYUN 1C DEB",
        "group": "fengyun-1c-debris",
        "lat": -29.546565797330544,
        "lon": -140.02275425380193,
        "alt_km": 829.8699464235115,
        "timestamp": "2025-12-07T22:37:43.362299+00:00",
        "meta_object_name": "FENGYUN 1C DEB",
        "meta_object_id": "1999-025BTS",
        "meta_epoch": "2025-12-06T10:22:16.151232",
        "meta_mean_motion": 14.25563753,
        "meta_eccentricity": 0.0027109,
        "meta_inclination": 98.7454,
        "meta_ra_of_asc_node": 43.4766,
        "meta_arg_of_pericenter": 60.5116,
        "meta_mean_anomaly": 320.4027,
        "meta_ephemeris_type": 0,
        "meta_classification_type": "U",
        "meta_norad_cat_id": 31430,
        "meta_element_set_no": 999,
        "meta_rev_at_epoch": 96028,
        "meta_bstar": 0.0019509456,
        "meta_mean_motion_dot": 4.592e-05,
        "meta_mean_motion_ddot": 0,
        "tle_line1": "1 31430U 99025BTS 25340.43213138  .00004592  00000+0  19509-2 0  9990",
        "tle_line2": "2 31430  98.7454  43.4766 0027109  60.5116 320.4027 14.25563753960282"
      },
      "geometry": {
        "type": "Point",
        "coordinates": [
          -140.02275425380193,
          -29.546565797330544
        ]
      }
    },
    {
      "type": "Feature",
      "properties": {
        "norad_id": 31431,
        "name": "FENGYUN 1C DEB",
        "group": "fengyun-1c-debris",
        "lat": 48.94039578199113,
        "lon": 60.34331358700754,
        "alt_km": 788.5723746869571,
        "timestamp": "2025-12-07T22:37:43.362310+00:00",
        "meta_object_name": "FENGYUN 1C DEB",
        "meta_object_id": "1999-025BTT",
        "meta_epoch": "2025-12-07T03:11:34.020096",
        "meta_mean_motion": 14.03040264,
        "meta_eccentricity": 0.01333851,
        "meta_inclination": 98.5389,
        "meta_ra_of_asc_node": 229.6519,
        "meta_arg_of_pericenter": 110.9019,
        "meta_mean_anomaly": 250.6487,
        "meta_ephemeris_type": 0,
        "meta_classification_type": "U",
        "meta_norad_cat_id": 31431,
        "meta_element_set_no": 999,
        "meta_rev_at_epoch": 94453,
        "meta_bstar": 0.0022154034,
        "meta_mean_motion_dot": 3.685e-05,
        "meta_mean_motion_ddot": 0,
        "tle_line1": "1 31431U 99025BTT 25341.13303264  .00003685  00000+0  22154-2 0  9991",
        "tle_line2": "2 31431  98.5389 229.6519 0133385 110.9019 250.6487 14.03040264944535"
      },
      "geometry": {
        "type": "Point",
        "coordinates": [
          60.34331358700754,
          48.94039578199113
        ]
      }
    }
  ]
}